[{"OBJECT_NAME":"STARLINK-5048","OBJECT_ID":"2022-119AB","EPOCH":"2026-03-09T23:07:32.216448","MEAN_MOTION":15.08841882,"ECCENTRICITY":8.616e-5,"INCLINATION":53.2179,"RA_OF_ASC_NODE":313.0689,"ARG_OF_PERICENTER":69.4177,"MEAN_ANOMALY":290.6907,"EPHEMERIS_TYPE":0,"CLASSIFICATION_TYPE":"U","NORAD_CAT_ID":53911,"ELEMENT_SET_NO":999,"REV_AT_EPOCH":19186,"BSTAR":-8.024545e-6,"MEAN_MOTION_DOT":-4.15e-6,"MEAN_MOTION_DDOT":0},{"OBJECT_NAME":"ATLAS 5 CENTAUR R\/B","OBJECT_ID":"2013-072P","EPOCH":"2026-03-09T21:36:10.628064","MEAN_MOTION":14.96443736,"ECCENTRICITY":0.0189428,"INCLINATION":120.4328,"RA_OF_ASC_NODE":111.5185,"ARG_OF_PERICENTER":160.796,"MEAN_ANOMALY":200.0359,"EPHEMERIS_TYPE":0,"CLASSIFICATION_TYPE":"U","NORAD_CAT_ID":39475,"ELEMENT_SET_NO":999,"REV_AT_EPOCH":9970,"BSTAR":0.00054929733,"MEAN_MOTION_DOT":8.701e-5,"MEAN_MOTION_DDOT":0}]
